{
  "norad_id": 67871,
  "name": "STARLINK-36769",
  "history": [
    {
      "epoch": "2026-03-28T22:00:01.999584Z",
      "apogee_km": 400.24065669157244,
      "perigee_km": 398.87088498258527,
      "latitude_deg": -10.839718281368294,
      "longitude_deg": -49.17359610260705,
      "height_km": 402.5880852867294,
      "semi_major_axis_km": 6777.692770837079,
      "eccentricity": 0.00010105,
      "inclination_deg": 53.1595,
      "raan_deg": 115.3665,
      "arg_perigee_deg": 83.9305,
      "mean_anomaly_deg": 262.6711,
      "mean_motion_rev_day": 15.55893778
    },
    {
      "epoch": "2026-03-29T04:00:01.999584Z",
      "apogee_km": 403.28977568161736,
      "perigee_km": 401.7098872998795,
      "latitude_deg": -39.78941871803575,
      "longitude_deg": -170.77654609464687,
      "height_km": 416.2527601543979,
      "semi_major_axis_km": 6780.636831490748,
      "eccentricity": 0.0001165,
      "inclination_deg": 53.1595,
      "raan_deg": 114.161,
      "arg_perigee_deg": 95.9469,
      "mean_anomaly_deg": 211.2923,
      "mean_motion_rev_day": 15.54880566
    }
  ]
}